{
"type": "FeatureCollection",
"name": "hotspot_shift_corridors",
"crs": { "type": "name", "properties": { "name": "urn:ogc:def:crs:OGC:1.3:CRS84" } },
"features": [
{ "type": "Feature", "properties": { "city": "houston", "corridor_width_km": 3.3374650164901638 }, "geometry": { "type": "Polygon", "coordinates": [ [ [ -95.402098406806573, 29.697182161431602 ], [ -95.400579407891072, 29.694542672091362 ], [ -95.399364120816159, 29.691785883315823 ], [ -95.398464229145503, 29.688938354080239 ], [ -95.39788837533942, 29.686027515455425 ], [ -95.397642078447063, 29.683081406132541 ], [ -95.397727681983994, 29.680128402176365 ], [ -95.398144332457107, 29.677196943618323 ], [ -95.398887988701773, 29.674315260526818 ], [ -95.399951461898354, 29.671511101194469 ], [ -95.401324485840533, 29.668811465057562 ], [ -95.402993816739055, 29.666242342913989 ], [ -95.404943361564136, 29.663828466932173 ], [ -95.407154333659861, 29.661593072846618 ], [ -95.409605434108201, 29.659557676615513 ], [ -95.412273057079346, 29.657741867674908 ], [ -95.415131517181862, 29.656163120762557 ], [ -95.418153296623203, 29.654836628105578 ], [ -95.421309309807938, 29.653775153569448 ], [ -95.424569182841353, 29.652988910155702 ], [ -95.427901545270231, 29.652485462011953 ], [ -95.431274331280576, 29.652269651883927 ], [ -95.434655087486931, 29.652343554696845 ], [ -95.438011284387912, 29.652706457704809 ], [ -95.44131062853036, 29.653354867394242 ], [ -95.444521372418066, 29.65428254307356 ], [ -95.447612619222468, 29.655480556827357 ], [ -95.450554619400435, 29.656937379263564 ], [ -95.453319056398058, 29.65863899023655 ], [ -95.455879318720051, 29.660569013491703 ], [ -95.458210755768661, 29.662708873949072 ], [ -95.460290915005515, 29.665037976127817 ], [ -95.462099758161472, 29.667533902010838 ], [ -95.504024019674276, 29.732147399318112 ], [ -95.505546279920367, 29.734785498373284 ], [ -95.506765005839156, 29.737541098141278 ], [ -95.507668440192631, 29.740387670358448 ], [ -95.508247858461004, 29.743297808876076 ], [ -95.508497653782953, 29.746243493292045 ], [ -95.508415391979185, 29.749196358577692 ], [ -95.508001836090074, 29.752127968111651 ], [ -95.507260940148797, 29.755010087496952 ], [ -95.506199812207072, 29.757814956525952 ], [ -95.504828646927066, 29.760515556671972 ], [ -95.503160628347928, 29.763085871526311 ], [ -95.501211803727216, 29.765501137663243 ], [ -95.499000929640545, 29.7677380835054 ], [ -95.496549291796754, 29.769775153874161 ], [ -95.493880500286167, 29.771592718046239 ], [ -95.491020262224524, 29.773173259294378 ], [ -95.487996133980914, 29.774501544068201 ], [ -95.484837255383638, 29.775564769167104 ], [ -95.481574068479389, 29.77635268546971 ], [ -95.478238023577617, 29.776857697011987 ], [ -95.474861275441341, 29.777074934445107 ], [ -95.471476372585826, 29.777002302154031 ], [ -95.468115942717404, 29.77664049857427 ], [ -95.464812377384334, 29.775993009505882 ], [ -95.461597518920144, 29.7750660744878 ], [ -95.458502352737256, 29.773868626558148 ], [ -95.455556707974779, 29.772412205986839 ], [ -95.452788969419714, 29.770710848820272 ], [ -95.450225803507266, 29.768780951323844 ], [ -95.44789190106323, 29.766641111642603 ], [ -95.445809739283646, 29.764311950221749 ], [ -95.443999365252182, 29.761815910734583 ], [ -95.402098406806573, 29.697182161431602 ] ] ] } },
{ "type": "Feature", "properties": { "city": "phoenix", "corridor_width_km": 3.2068669225291426 }, "geometry": { "type": "Polygon", "coordinates": [ [ [ -112.096249570869503, 33.398571271153962 ], [ -112.096502631678462, 33.395740988926548 ], [ -112.097085175315442, 33.392945138501297 ], [ -112.097991560975402, 33.390210641543142 ], [ -112.09921303166189, 33.387563826435894 ], [ -112.100737799595933, 33.385030174969231 ], [ -112.102551160671908, 33.382634077261827 ], [ -112.104635636822479, 33.380398597268545 ], [ -112.10697114489281, 33.378345251114133 ], [ -112.109535190376661, 33.376493800371428 ], [ -112.112303084136471, 33.374862062255836 ], [ -112.11524818001709, 33.373465738544361 ], [ -112.118342131071032, 33.372318264847756 ], [ -112.121555161942695, 33.371430681668372 ], [ -112.124856354811939, 33.370811528468387 ], [ -112.128213946174284, 33.370466761753768 ], [ -112.131595631636742, 33.370399697950162 ], [ -112.134968875836407, 33.370610981612074 ], [ -112.138301224542417, 33.371098579265464 ], [ -112.141560615982797, 33.371857798941491 ], [ -112.144715688444663, 33.372881335214963 ], [ -112.147736081230363, 33.374159339319448 ], [ -112.150592726112222, 33.375679513672807 ], [ -112.153258126514785, 33.377427229915462 ], [ -112.155706621765319, 33.379385669339207 ], [ -112.157914633888808, 33.381535984371752 ], [ -112.159860894583616, 33.383857479580236 ], [ -112.161526650195881, 33.386327810470092 ], [ -112.162895842712686, 33.388923198184258 ], [ -112.16395526501671, 33.391618658053872 ], [ -112.164694688883998, 33.394388239816664 ], [ -112.165106964461259, 33.397205277205188 ], [ -112.165188090227858, 33.400042644513618 ], [ -112.155669331470349, 33.717378596651997 ], [ -112.155417579482318, 33.720208834467179 ], [ -112.154835038759728, 33.723004820865306 ], [ -112.15392728836045, 33.725739625054501 ], [ -112.152703041889112, 33.728386903008726 ], [ -112.151174064678727, 33.730921151418954 ], [ -112.149355061440943, 33.733317953632778 ], [ -112.147263535429843, 33.735554215201667 ], [ -112.144919620445435, 33.737608386751944 ], [ -112.142345887272768, 33.739460672015277 ], [ -112.139567126407272, 33.741093218996319 ], [ -112.136610109155185, 33.742490292416136 ], [ -112.13350332941549, 33.743638425751037 ], [ -112.130276728645171, 33.744526551382826 ], [ -112.126961406680763, 33.745146107589662 ], [ -112.123589321232473, 33.745491121331163 ], [ -112.120192978984036, 33.74555826601798 ], [ -112.116805121316091, 33.745346893699747 ], [ -112.113458407727393, 33.744859041355667 ], [ -112.11018510005124, 33.744099411225172 ], [ -112.107016750556497, 33.743075325370107 ], [ -112.103983896983806, 33.741796654911965 ], [ -112.101115767495884, 33.740275724635325 ], [ -112.098439998420389, 33.738527193888878 ], [ -112.095982367533523, 33.736567914947017 ], [ -112.093766545474367, 33.734416770213521 ], [ -112.091813867696885, 33.732094489854767 ], [ -112.090143129158761, 33.729623451638588 ], [ -112.088770403718044, 33.727027464926579 ], [ -112.087708889961291, 33.72433154091916 ], [ -112.086968784923343, 33.721561651383631 ], [ -112.086557186882914, 33.718744478204364 ], [ -112.08647802813158, 33.715907156179284 ], [ -112.096249570869503, 33.398571271153962 ] ] ] } },
{ "type": "Feature", "properties": { "city": "las_vegas", "corridor_width_km": 6.0 }, "geometry": { "type": "Polygon", "coordinates": [ [ [ -114.726529716143872, 36.316431464573476 ], [ -114.723277745231798, 36.321038471055694 ], [ -114.719483016288137, 36.325365213307371 ], [ -114.715182036861094, 36.329369971653229 ], [ -114.71041621510517, 36.333014125747468 ], [ -114.705231461501342, 36.336262528525367 ], [ -114.699677746228005, 36.339083846689569 ], [ -114.693808616462093, 36.341450864374465 ], [ -114.687680678315274, 36.343340746990044 ], [ -114.68135304848488, 36.34473526263664 ], [ -114.674886781024227, 36.345620958899495 ], [ -114.668344274903717, 36.345989293273227 ], [ -114.661788668240604, 36.345836715926005 ], [ -114.655283225219094, 36.345164703987187 ], [ -114.648890721799717, 36.343979747023837 ], [ -114.642672836329197, 36.342293283857799 ], [ -114.636689551106215, 36.340121591358248 ], [ -114.630998570838727, 36.337485626321566 ], [ -114.62565476374337, 36.334410822014483 ], [ -114.620709630792007, 36.330926841403226 ], [ -114.616210808306576, 36.327067289516705 ], [ -114.612201608747242, 36.322869387790227 ], [ -114.608720604131733, 36.318373613604301 ], [ -114.60580125607585, 36.313623308567294 ], [ -114.60347159595824, 36.308664259387712 ], [ -114.601753958194777, 36.303544255438823 ], [ -114.600664769065048, 36.29831262733358 ], [ -114.600214392972575, 36.293019770998384 ], [ -114.600407037446942, 36.287716661861673 ], [ -114.601240717616562, 36.282454363852658 ], [ -114.602707280301885, 36.277283537941663 ], [ -114.604792487306568, 36.272253954941625 ], [ -114.607476156920868, 36.267414017235787 ], [ -114.863299437537094, 35.85816744546581 ], [ -114.86652299914428, 35.853555377922731 ], [ -114.8702859326105, 35.8492226131523 ], [ -114.874551961489217, 35.845210828364124 ], [ -114.879279988718764, 35.841558607997591 ], [ -114.884424492886353, 35.838301074096691 ], [ -114.889935966146737, 35.835469550011446 ], [ -114.89576138959724, 35.83309126059136 ], [ -114.901844741586601, 35.831189071687 ], [ -114.908127534149855, 35.829781271404606 ], [ -114.914549372522089, 35.828881395164956 ], [ -114.921048532485415, 35.828498096206239 ], [ -114.92756255015297, 35.828635062745896 ], [ -114.93402881868704, 35.82929098258063 ], [ -114.940385186388852, 35.830459555460862 ], [ -114.946570550584724, 35.8321295531305 ], [ -114.952525441766696, 35.834284926478169 ], [ -114.958192592526572, 35.836904958804922 ], [ -114.963517485948486, 35.839964463781484 ], [ -114.968448878298489, 35.843434026247877 ], [ -114.972939291066979, 35.847280283602679 ], [ -114.976945467682427, 35.85146624514438 ], [ -114.980428790518786, 35.855951646363827 ], [ -114.983355654166573, 35.860693334850012 ], [ -114.985697791321144, 35.865645684164122 ], [ -114.987432548066181, 35.870761031761404 ], [ -114.988543105784672, 35.875990136800858 ], [ -114.989018647418916, 35.881282653480199 ], [ -114.988854466314251, 35.886587615372534 ], [ -114.988052016420468, 35.891853926120618 ], [ -114.986618903179675, 35.897030851769536 ], [ -114.984568815001055, 35.9020685099877 ], [ -114.981921395799787, 35.90691835144122 ], [ -114.726529716143872, 36.316431464573476 ] ] ] } }
]
}
